NUSHSAT1                
1 63211U 25052B   26068.64700493  .00023034  00000+0  74857-3 0  9997
2 63211  97.4095 325.7239 0005501  84.7512 275.4357 15.31903202 54882
STARLINK-34072          
1 64101U 25110F   26068.32248140  .00028940  00000+0  98572-3 0  9993
2 64101  53.1602  28.6578 0001123  54.2929 305.8176 15.30190771 45828
